OBJECT_NAME,OBJECT_ID,EPOCH,MEAN_MOTION,ECCENTRICITY,INCLINATION,RA_OF_ASC_NODE,ARG_OF_PERICENTER,MEAN_ANOMALY,EPHEMERIS_TYPE,CLASSIFICATION_TYPE,NORAD_CAT_ID,ELEMENT_SET_NO,REV_AT_EPOCH,BSTAR,MEAN_MOTION_DOT,MEAN_MOTION_DDOT
LEMUR-2-ALISIA,2025-009DB,2026-06-27T04:33:05.140512,15.02904295,.00027982,97.6937,260.2900,182.1274,177.9940,0,U,62706,999,10166,.66922975E-3,.8927E-4,0
LEMUR-2-ROUNDTRIPPER,2025-009DG,2026-06-27T06:34:26.757984,15.03950910,.00054966,97.7249,260.9395,107.0731,253.1097,0,U,62711,999,7914,.6730463E-3,.9234E-4,0
LEMUR-2-MYNAMEISJEFF,2025-009DH,2026-06-27T04:56:19.719456,15.03945393,.00039892,97.7291,261.2583,132.7796,227.3766,0,U,62712,999,7913,.61444106E-3,.8421E-4,0
LEMUR-2-LEIA-PHILIP,2025-052AN,2026-06-27T05:27:30.625920,14.97338429,.00037572,97.6819,70.0090,175.9974,184.1279,0,U,63246,999,7017,.12542198E-3,.1398E-4,0
LEMUR-2-LIA-MARTIN,2025-052AQ,2026-06-27T05:29:54.038688,14.97876394,.00038993,97.6876,70.5004,138.6048,221.5470,0,U,63248,999,7018,.42658253E-3,.4964E-4,0
LEMUR-2-DELOITTE-1,2025-052BB,2026-06-27T06:34:00.094944,14.97673694,.00031026,97.6924,70.8753,76.0289,284.1278,0,U,63259,999,7020,.29699783E-3,.342E-4,0
LEMUR-2-EMERSONROSE,2025-052BD,2026-06-27T05:44:00.359520,14.99149071,.00021028,97.6878,71.4168,78.3949,281.7510,0,U,63261,999,7024,.37383293E-3,.4489E-4,0
LEMUR-2-MARACHE-FRAN,2025-052BE,2026-06-27T04:58:31.287648,15.00186912,.00045167,97.6922,71.7246,341.0693,19.0362,0,U,63262,999,7026,.4031542E-3,.498E-4,0
LEMUR-2-THEFALCONER,2025-052BG,2026-06-27T05:37:55.739424,14.97447348,.00014909,97.6852,70.4446,17.5603,342.5670,0,U,63264,999,7019,.34036825E-3,.3905E-4,0
LEMUR-2-UNTITLED-SC,2025-061A,2026-06-27T04:53:53.795904,15.13539995,.00173827,97.5637,153.4931,226.7144,133.2638,0,U,63351,999,6910,.22908712E-3,.4053E-4,0
LEMUR-2-ESPERANZA,2025-061B,2026-06-26T21:59:18.777984,15.13628579,.0016964,97.5641,153.3028,226.9985,132.9825,0,U,63352,999,6906,.19435E-3,.3436E-4,0
LEMUR-2-KREMPEL-BRO2,2025-061C,2026-06-27T04:54:47.323296,15.14070098,.00180834,97.5689,154.1356,218.0380,141.9575,0,U,63353,999,6912,.22740924E-3,.4085E-4,0
LEMUR-2-THERMORAPTOR,2025-061D,2026-06-27T04:28:12.203904,15.14150531,.00178122,97.5694,154.1948,216.7708,143.2303,0,U,63354,999,6912,.19616183E-3,.3522E-4,0
LEMUR-2-NEUROSPICY,2025-061E,2026-06-26T21:25:41.426976,15.14263449,.001557,97.5620,153.5214,221.3544,138.6510,0,U,63355,999,6908,.22667E-3,.409E-4,0
LEMUR-2-TILLINFINITY,2025-061F,2026-06-26T22:11:04.779168,15.14850004,.0017097,97.5605,153.8503,208.5865,151.4431,0,U,63356,999,6911,.2062E-3,.3779E-4,0
LEMUR-2-KREMPEL-BRO1,2025-061G,2026-06-26T21:34:40.550016,15.14655024,.0017711,97.5607,153.7385,210.3856,149.6351,0,U,63357,999,6910,.2199E-3,.4013E-4,0
LEMUR-2-LANGER2SPACE,2025-061H,2026-06-27T04:36:14.405760,15.14353771,.00154956,97.5612,153.8396,218.1826,141.8310,0,U,63358,999,6913,.20501645E-3,.3702E-4,0
LEMUR-2-BALTO,2025-052BH,2026-06-27T06:12:34.333344,15.00195388,.00065497,97.6925,71.7509,30.9597,329.2012,0,U,63395,999,7027,.50926165E-3,.6311E-4,0
LEMUR-2-KRISH,2025-135AK,2026-06-27T07:21:02.179008,14.96292262,.00010901,97.7747,293.1131,103.3926,256.7417,0,U,64561,999,5543,.45413688E-3,.5075E-4,0
LEMUR-2-HUBBLE-4,2025-135AP,2026-06-27T06:06:38.907072,14.93564644,.000122,97.7707,292.0398,225.3423,134.7697,0,U,64565,999,5537,.17558719E-3,.1794E-4,0
LEMUR-2-SEJONG-2,2025-135BL,2026-06-27T06:23:14.273952,14.96775844,.00027962,97.7696,293.2176,299.4676,60.6266,0,U,64586,999,5545,.48017829E-3,.5437E-4,0
LEMUR-2-HUBBLE-5,2025-135BT,2026-06-27T06:28:30.086688,14.94165966,.00042725,97.7726,292.7043,315.2730,44.8145,0,U,64840,999,5541,.18974626E-3,.1974E-4,0
LEMUR-2-KARENDARRELL,2025-135BU,2026-06-27T06:09:35.303040,15.00255087,.00105669,97.7685,294.4476,164.3793,195.7758,0,U,64841,999,5552,.71627714E-3,.8923E-4,0
LEMUR-2-LUCILLE-ROSE,2025-135BV,2026-06-27T07:07:25.970304,15.00275679,.00124047,97.7747,294.5180,246.2726,113.7197,0,U,65403,999,5015,.59982096E-3,.7467E-4,0
LEMUR-2-AFFIE-WAUWIE,2025-248C,2026-06-26T16:05:37.034592,15.27531092,.00077086,45.3937,63.5971,149.2516,210.8826,0,U,66295,999,3604,.84292418E-3,.22909E-3,0
LEMUR-2-DEANANDMAEVE,2025-276N,2026-06-27T04:34:43.559616,15.19850842,.000476,97.4216,251.5005,337.6865,22.4162,0,U,66678,999,3193,.3201217E-3,.68E-4,0
LEMUR-2-STAS-GORBUK,2025-276W,2026-06-27T04:59:01.253760,15.19482151,.00040468,97.4250,251.5712,337.8562,22.2497,0,U,66686,999,3193,.30043233E-3,.6309E-4,0
LEMUR-2-TEODOR,2025-276DG,2026-06-27T04:19:50.568096,15.21154686,.00023715,97.4156,251.7934,106.8130,253.3366,0,U,66768,999,3196,.27511168E-3,.606E-4,0
LEMUR-2-LAILA,2025-276DQ,2026-06-27T03:40:11.091360,15.21377528,.00026722,97.4179,251.8933,121.3399,238.8099,0,U,66776,999,3196,.30264564E-3,.6718E-4,0
