LEMUR-2-ALISIA          
1 62706U 25009DB  26178.18964283  .00008927  00000+0  66923-3 0  9996
2 62706  97.6937 260.2900 0002798 182.1274 177.9940 15.02904295101662
LEMUR-2-ROUNDTRIPPER    
1 62711U 25009DG  26178.27392081  .00009234  00000+0  67305-3 0  9990
2 62711  97.7249 260.9395 0005496 107.0731 253.1097 15.03950910 79145
LEMUR-2-MYNAMEISJEFF    
1 62712U 25009DH  26178.20578379  .00008421  00000+0  61444-3 0  9995
2 62712  97.7291 261.2583 0003989 132.7796 227.3766 15.03945393 79131
LEMUR-2-LEIA-PHILIP     
1 63246U 25052AN  26178.22743780  .00001398  00000+0  12542-3 0  9999
2 63246  97.6819  70.0090 0003757 175.9974 184.1279 14.97338429 70170
LEMUR-2-LIA-MARTIN      
1 63248U 25052AQ  26178.22909767  .00004964  00000+0  42658-3 0  9993
2 63248  97.6876  70.5004 0003899 138.6048 221.5470 14.97876394 70188
LEMUR-2-DELOITTE-1      
1 63259U 25052BB  26178.27361221  .00003420  00000+0  29700-3 0  9996
2 63259  97.6924  70.8753 0003102  76.0289 284.1278 14.97673694 70209
LEMUR-2-EMERSONROSE     
1 63261U 25052BD  26178.23889305  .00004489  00000+0  37383-3 0  9995
2 63261  97.6878  71.4168 0002102  78.3949 281.7510 14.99149071 70249
LEMUR-2-MARACHE-FRAN    
1 63262U 25052BE  26178.20730657  .00004980  00000+0  40315-3 0  9993
2 63262  97.6922  71.7246 0004516 341.0693  19.0362 15.00186912 70264
LEMUR-2-THEFALCONER     
1 63264U 25052BG  26178.23467291  .00003905  00000+0  34037-3 0  9999
2 63264  97.6852  70.4446 0001490  17.5603 342.5670 14.97447348 70196
LEMUR-2-UNTITLED-SC     
1 63351U 25061A   26178.20409486  .00004053  00000+0  22909-3 0  9995
2 63351  97.5637 153.4931 0017382 226.7144 133.2638 15.13539995 69102
LEMUR-2-ESPERANZA       
1 63352U 25061B   26177.91618956  .00003436  00000+0  19435-3 0  9991
2 63352  97.5641 153.3028 0016964 226.9985 132.9825 15.13628579 69060
LEMUR-2-KREMPEL-BRO2    
1 63353U 25061C   26178.20471439  .00004085  00000+0  22741-3 0  9993
2 63353  97.5689 154.1356 0018083 218.0380 141.9575 15.14070098 69128
LEMUR-2-THERMORAPTOR    
1 63354U 25061D   26178.18625236  .00003522  00000+0  19616-3 0  9999
2 63354  97.5694 154.1948 0017812 216.7708 143.2303 15.14150531 69125
LEMUR-2-NEUROSPICY      
1 63355U 25061E   26177.89284059  .00004090  00000+0  22667-3 0  9992
2 63355  97.5620 153.5214 0015570 221.3544 138.6510 15.14263449 69089
LEMUR-2-TILLINFINITY    
1 63356U 25061F   26177.92436087  .00003779  00000+0  20620-3 0  9997
2 63356  97.5605 153.8503 0017097 208.5865 151.4431 15.14850004 69114
LEMUR-2-KREMPEL-BRO1    
1 63357U 25061G   26177.89908044  .00004013  00000+0  21990-3 0  9994
2 63357  97.5607 153.7385 0017711 210.3856 149.6351 15.14655024 69102
LEMUR-2-LANGER2SPACE    
1 63358U 25061H   26178.19183340  .00003702  00000+0  20502-3 0  9995
2 63358  97.5612 153.8396 0015495 218.1826 141.8310 15.14353771 69138
LEMUR-2-BALTO           
1 63395U 25052BH  26178.25873071  .00006311  00000+0  50926-3 0  9992
2 63395  97.6925  71.7509 0006549  30.9597 329.2012 15.00195388 70277
LEMUR-2-KRISH           
1 64561U 25135AK  26178.30627522  .00005075  00000+0  45414-3 0  9996
2 64561  97.7747 293.1131 0001090 103.3926 256.7417 14.96292262 55431
LEMUR-2-HUBBLE-4        
1 64565U 25135AP  26178.25461698  .00001794  00000+0  17559-3 0  9997
2 64565  97.7707 292.0398 0001220 225.3423 134.7697 14.93564644 55377
LEMUR-2-SEJONG-2        
1 64586U 25135BL  26178.26613743  .00005437  00000+0  48018-3 0  9993
2 64586  97.7696 293.2176 0002796 299.4676  60.6266 14.96775844 55452
LEMUR-2-HUBBLE-5        
1 64840U 25135BT  26178.26979267  .00001974  00000+0  18975-3 0  9993
2 64840  97.7726 292.7043 0004272 315.2730  44.8145 14.94165966 55417
LEMUR-2-KARENDARRELL    
1 64841U 25135BU  26178.25665860  .00008923  00000+0  71628-3 0  9999
2 64841  97.7685 294.4476 0010566 164.3793 195.7758 15.00255087 55526
LEMUR-2-LUCILLE-ROSE    
1 65403U 25135BV  26178.29682836  .00007467  00000+0  59982-3 0  9991
2 65403  97.7747 294.5180 0012404 246.2726 113.7197 15.00275679 50152
LEMUR-2-AFFIE-WAUWIE    
1 66295U 25248C   26177.67056753  .00022909  00000+0  84292-3 0  9990
2 66295  45.3937  63.5971 0007708 149.2516 210.8826 15.27531092 36047
LEMUR-2-DEANANDMAEVE    
1 66678U 25276N   26178.19078194  .00006800  00000+0  32012-3 0  9992
2 66678  97.4216 251.5005 0004760 337.6865  22.4162 15.19850842 31933
LEMUR-2-STAS-GORBUK     
1 66686U 25276W   26178.20765340  .00006309  00000+0  30043-3 0  9995
2 66686  97.4250 251.5712 0004046 337.8562  22.2497 15.19482151 31931
LEMUR-2-TEODOR          
1 66768U 25276DG  26178.18044639  .00006060  00000+0  27511-3 0  9994
2 66768  97.4156 251.7934 0002371 106.8130 253.3366 15.21154686 31966
LEMUR-2-LAILA           
1 66776U 25276DQ  26178.15290615  .00006718  00000+0  30265-3 0  9997
2 66776  97.4179 251.8933 0002672 121.3399 238.8099 15.21377528 31966
